{
  "type": "FeatureCollection",
  "generator": "overpass-turbo",
  "copyright": "The data included in this document is from www.openstreetmap.org. The data is made available under ODbL.",
  "timestamp": "2025-12-02T15:42:45Z",
  "features": [
    {
      "type": "Feature",
      "properties": {
        "@id": "relation/6051875",
        "colour": "#c95b00",
        "description": "Conecta con el Metro Propatria",
        "fee": "yes",
        "name": "Metrobus 501: Casalta",
        "network": "Metrobus Caracas",
        "network:wikidata": "Q5037565",
        "network:wikipedia": "es:Metrobús (Caracas)",
        "operator": "C.A. Metro de Caracas",
        "operator:wikidata": "Q21001826",
        "passenger": "local",
        "public_transport:version": "2",
        "ref": "501",
        "roundtrip": "yes",
        "route": "bus",
        "source": "C.A. Metro de Caracas (2013)",
        "type": "route",
        "wheelchair": "limited",
        "wikidata": "Q109318967"
      },
      "geometry": {
        "type": "LineString",
        "coordinates": [
          [
            -66.9548524,
            10.5038548
          ],
          [
            -66.9549503,
            10.5038989
          ],
          [
            -66.9553424,
            10.5040633
          ],
          [
            -66.9555359,
            10.5041388
          ],
          [
            -66.95562,
            10.5041695
          ],
          [
            -66.9556982,
            10.5042011
          ],
          [
            -66.9560702,
            10.504373
          ],
          [
            -66.9563741,
            10.50448
          ],
          [
            -66.9565603,
            10.5045416
          ],
          [
            -66.9573758,
            10.5048687
          ],
          [
            -66.9571893,
            10.5053376
          ],
          [
            -66.9577435,
            10.5054664
          ],
          [
            -66.9578692,
            10.5054932
          ],
          [
            -66.9580684,
            10.5055406
          ],
          [
            -66.9583051,
            10.5055894
          ],
          [
            -66.9584658,
            10.5052024
          ],
          [
            -66.958631,
            10.5048147
          ],
          [
            -66.9587144,
            10.5046213
          ],
          [
            -66.9594021,
            10.5048873
          ],
          [
            -66.9594444,
            10.5048932
          ],
          [
            -66.9594752,
            10.5048866
          ],
          [
            -66.959496,
            10.5048668
          ],
          [
            -66.959542,
            10.5047535
          ],
          [
            -66.9596273,
            10.5045528
          ],
          [
            -66.9596569,
            10.504406
          ],
          [
            -66.959677,
            10.5042438
          ],
          [
            -66.9596813,
            10.5042033
          ],
          [
            -66.9597146,
            10.5038922
          ],
          [
            -66.9597387,
            10.5036675
          ],
          [
            -66.9597507,
            10.5035801
          ],
          [
            -66.9597588,
            10.5035409
          ],
          [
            -66.9597803,
            10.5034368
          ],
          [
            -66.9598044,
            10.5033405
          ],
          [
            -66.9598338,
            10.5032384
          ],
          [
            -66.9598527,
            10.503173
          ],
          [
            -66.9599382,
            10.5029189
          ],
          [
            -66.95996,
            10.5028539
          ],
          [
            -66.9600158,
            10.5027187
          ],
          [
            -66.9600812,
            10.5025601
          ],
          [
            -66.9602658,
            10.5021076
          ],
          [
            -66.9604616,
            10.501679
          ],
          [
            -66.9604723,
            10.5016263
          ],
          [
            -66.9604723,
            10.5015603
          ],
          [
            -66.9604509,
            10.5013586
          ],
          [
            -66.960424,
            10.501265
          ],
          [
            -66.9603932,
            10.5011898
          ],
          [
            -66.960353,
            10.5011291
          ],
          [
            -66.9603127,
            10.5010935
          ],
          [
            -66.9602602,
            10.5010702
          ],
          [
            -66.9601982,
            10.5010426
          ],
          [
            -66.9601451,
            10.5010026
          ],
          [
            -66.9600928,
            10.5009801
          ],
          [
            -66.9600391,
            10.5009722
          ],
          [
            -66.9599815,
            10.5009828
          ],
          [
            -66.9598889,
            10.5010184
          ],
          [
            -66.9595993,
            10.5011647
          ],
          [
            -66.9595335,
            10.5011898
          ],
          [
            -66.9594464,
            10.5012149
          ],
          [
            -66.9590849,
            10.5012762
          ],
          [
            -66.9588503,
            10.501321
          ],
          [
            -66.9586904,
            10.5013448
          ],
          [
            -66.9585807,
            10.5013507
          ],
          [
            -66.9584935,
            10.5013388
          ],
          [
            -66.9584453,
            10.5013183
          ],
          [
            -66.958407,
            10.5012986
          ],
          [
            -66.9583742,
            10.5012729
          ],
          [
            -66.9583533,
            10.5012452
          ],
          [
            -66.9583386,
            10.501203
          ],
          [
            -66.9583501,
            10.501079
          ],
          [
            -66.958344,
            10.5006716
          ],
          [
            -66.9583628,
            10.5004276
          ],
          [
            -66.9583721,
            10.500367
          ],
          [
            -66.9583949,
            10.5002733
          ],
          [
            -66.9584379,
            10.5001665
          ],
          [
            -66.9584996,
            10.5000149
          ],
          [
            -66.9586833,
            10.4996312
          ],
          [
            -66.9587986,
            10.4993727
          ],
          [
            -66.9588402,
            10.4992461
          ],
          [
            -66.9588523,
            10.4991925
          ],
          [
            -66.958859,
            10.499163
          ],
          [
            -66.9588724,
            10.4990628
          ],
          [
            -66.9588898,
            10.4986053
          ],
          [
            -66.9588894,
            10.4985288
          ],
          [
            -66.9588885,
            10.4983758
          ],
          [
            -66.9588965,
            10.4976505
          ],
          [
            -66.9588928,
            10.4974897
          ],
          [
            -66.9588912,
            10.4974224
          ],
          [
            -66.9588992,
            10.4973249
          ],
          [
            -66.958916,
            10.497251
          ],
          [
            -66.9589448,
            10.4971679
          ],
          [
            -66.9589182,
            10.4971327
          ],
          [
            -66.9588798,
            10.497038
          ],
          [
            -66.9588355,
            10.4969582
          ],
          [
            -66.9587758,
            10.4969029
          ],
          [
            -66.9587054,
            10.4968666
          ],
          [
            -66.9586343,
            10.4968455
          ],
          [
            -66.9585371,
            10.496831
          ],
          [
            -66.9584278,
            10.4968218
          ],
          [
            -66.9583152,
            10.496825
          ],
          [
            -66.9582159,
            10.4968317
          ],
          [
            -66.958122,
            10.4968527
          ],
          [
            -66.9580617,
            10.4968804
          ],
          [
            -66.9579946,
            10.4969332
          ],
          [
            -66.9579376,
            10.4970018
          ],
          [
            -66.9577687,
            10.497193
          ],
          [
            -66.9576319,
            10.4973116
          ],
          [
            -66.9575286,
            10.4973894
          ],
          [
            -66.9574629,
            10.4974343
          ],
          [
            -66.957373,
            10.4974712
          ],
          [
            -66.9572309,
            10.4975345
          ],
          [
            -66.9570498,
            10.4975807
          ],
          [
            -66.9567065,
            10.497671
          ],
          [
            -66.9566656,
            10.4976782
          ],
          [
            -66.9566193,
            10.4976855
          ],
          [
            -66.9565194,
            10.4977158
          ],
          [
            -66.9563679,
            10.4977732
          ],
          [
            -66.9560661,
            10.4979031
          ],
          [
            -66.9557684,
            10.4980679
          ],
          [
            -66.9552085,
            10.4983567
          ],
          [
            -66.9551428,
            10.4984048
          ],
          [
            -66.9550891,
            10.4984971
          ],
          [
            -66.9550744,
            10.498542
          ],
          [
            -66.9550784,
            10.498633
          ],
          [
            -66.9551065,
            10.4987095
          ],
          [
            -66.9551803,
            10.4987965
          ],
          [
            -66.9553339,
            10.4987562
          ],
          [
            -66.9555263,
            10.4986962
          ],
          [
            -66.9557114,
            10.4986382
          ],
          [
            -66.9557979,
            10.4986184
          ],
          [
            -66.9558874,
            10.4986115
          ],
          [
            -66.9559414,
            10.4986349
          ],
          [
            -66.9559836,
            10.4986652
          ],
          [
            -66.9560078,
            10.4987068
          ],
          [
            -66.9560219,
            10.498778
          ],
          [
            -66.9560158,
            10.4988386
          ],
          [
            -66.9560038,
            10.4988967
          ],
          [
            -66.9559702,
            10.4990074
          ],
          [
            -66.955926,
            10.4991156
          ],
          [
            -66.9555545,
            10.4999753
          ],
          [
            -66.9553493,
            10.5003907
          ],
          [
            -66.9552755,
            10.500541
          ],
          [
            -66.9552125,
            10.5006412
          ],
          [
            -66.9551615,
            10.5007045
          ],
          [
            -66.9551391,
            10.500726
          ],
          [
            -66.9551133,
            10.5007507
          ],
          [
            -66.9550382,
            10.5008008
          ],
          [
            -66.9547532,
            10.5009102
          ],
          [
            -66.9546164,
            10.5009821
          ],
          [
            -66.9544548,
            10.5010896
          ],
          [
            -66.9544025,
            10.5011753
          ],
          [
            -66.9542909,
            10.5014236
          ],
          [
            -66.9542697,
            10.5014707
          ],
          [
            -66.9542161,
            10.5016079
          ],
          [
            -66.9541915,
            10.5016771
          ],
          [
            -66.9540122,
            10.50213
          ],
          [
            -66.9538345,
            10.5026436
          ],
          [
            -66.9537883,
            10.502995
          ],
          [
            -66.9537601,
            10.5033275
          ],
          [
            -66.9537413,
            10.5036128
          ],
          [
            -66.9538425,
            10.5036965
          ],
          [
            -66.9540172,
            10.5037983
          ],
          [
            -66.9542488,
            10.5038866
          ],
          [
            -66.9545648,
            10.5040072
          ],
          [
            -66.9548524,
            10.5038548
          ]
        ]
      },
      "id": "relation/6051875"
    },
    {
      "type": "Feature",
      "properties": {
        "@id": "way/991344187",
        "highway": "residential",
        "lanes": "2",
        "lit": "yes",
        "maxspeed": "40",
        "name": "Calle 4",
        "oneway": "yes",
        "source": "Maxar (2021); Alcaldía de Caracas (2021)",
        "source:geometry": "Maxar (2021)",
        "source:name": "Alcaldía de Caracas (2021)",
        "surface": "asphalt",
        "@relations": [
          {
            "role": "",
            "rel": 6051875,
            "reltags": {
              "colour": "#c95b00",
              "description": "Conecta con el Metro Propatria",
              "fee": "yes",
              "name": "Metrobus 501: Casalta",
              "network": "Metrobus Caracas",
              "network:wikidata": "Q5037565",
              "network:wikipedia": "es:Metrobús (Caracas)",
              "operator": "C.A. Metro de Caracas",
              "operator:wikidata": "Q21001826",
              "passenger": "local",
              "public_transport:version": "2",
              "ref": "501",
              "roundtrip": "yes",
              "route": "bus",
              "source": "C.A. Metro de Caracas (2013)",
              "type": "route",
              "wheelchair": "limited",
              "wikidata": "Q109318967"
            }
          }
        ]
      },
      "geometry": {
        "type": "LineString",
        "coordinates": [
          [
            -66.9545648,
            10.5040072
          ],
          [
            -66.9548524,
            10.5038548
          ]
        ]
      },
      "id": "way/991344187"
    },
    {
      "type": "Feature",
      "properties": {
        "@id": "way/991344360",
        "highway": "residential",
        "lanes": "2",
        "lit": "yes",
        "maxspeed": "40",
        "name": "Calle 10",
        "oneway": "no",
        "source": "Maxar (2021); Alcaldía de Caracas (2021)",
        "source:geometry": "Maxar (2021)",
        "source:name": "Alcaldía de Caracas (2021)",
        "surface": "asphalt",
        "@relations": [
          {
            "role": "",
            "rel": 6051875,
            "reltags": {
              "colour": "#c95b00",
              "description": "Conecta con el Metro Propatria",
              "fee": "yes",
              "name": "Metrobus 501: Casalta",
              "network": "Metrobus Caracas",
              "network:wikidata": "Q5037565",
              "network:wikipedia": "es:Metrobús (Caracas)",
              "operator": "C.A. Metro de Caracas",
              "operator:wikidata": "Q21001826",
              "passenger": "local",
              "public_transport:version": "2",
              "ref": "501",
              "roundtrip": "yes",
              "route": "bus",
              "source": "C.A. Metro de Caracas (2013)",
              "type": "route",
              "wheelchair": "limited",
              "wikidata": "Q109318967"
            }
          }
        ]
      },
      "geometry": {
        "type": "LineString",
        "coordinates": [
          [
            -66.9594752,
            10.5048866
          ],
          [
            -66.959496,
            10.5048668
          ],
          [
            -66.959542,
            10.5047535
          ],
          [
            -66.9596273,
            10.5045528
          ],
          [
            -66.9596569,
            10.504406
          ],
          [
            -66.959677,
            10.5042438
          ],
          [
            -66.9596813,
            10.5042033
          ],
          [
            -66.9597146,
            10.5038922
          ],
          [
            -66.9597387,
            10.5036675
          ],
          [
            -66.9597507,
            10.5035801
          ],
          [
            -66.9597588,
            10.5035409
          ],
          [
            -66.9597803,
            10.5034368
          ],
          [
            -66.9598044,
            10.5033405
          ],
          [
            -66.9598338,
            10.5032384
          ],
          [
            -66.9598527,
            10.503173
          ],
          [
            -66.9599382,
            10.5029189
          ],
          [
            -66.95996,
            10.5028539
          ],
          [
            -66.9600158,
            10.5027187
          ],
          [
            -66.9600812,
            10.5025601
          ],
          [
            -66.9602658,
            10.5021076
          ],
          [
            -66.9604616,
            10.501679
          ],
          [
            -66.9604723,
            10.5016263
          ],
          [
            -66.9604723,
            10.5015603
          ],
          [
            -66.9604509,
            10.5013586
          ],
          [
            -66.960424,
            10.501265
          ],
          [
            -66.9603932,
            10.5011898
          ],
          [
            -66.960353,
            10.5011291
          ],
          [
            -66.9603127,
            10.5010935
          ],
          [
            -66.9602602,
            10.5010702
          ],
          [
            -66.9601982,
            10.5010426
          ]
        ]
      },
      "id": "way/991344360"
    },
    {
      "type": "Feature",
      "properties": {
        "@id": "way/991344382",
        "highway": "residential",
        "lanes": "2",
        "lit": "yes",
        "maxspeed": "40",
        "name": "Calle Central",
        "oneway": "no",
        "source": "Maxar (2021); Alcaldía de Caracas (2021)",
        "source:geometry": "Maxar (2021)",
        "source:name": "Alcaldía de Caracas (2021)",
        "surface": "asphalt",
        "@relations": [
          {
            "role": "",
            "rel": 6051875,
            "reltags": {
              "colour": "#c95b00",
              "description": "Conecta con el Metro Propatria",
              "fee": "yes",
              "name": "Metrobus 501: Casalta",
              "network": "Metrobus Caracas",
              "network:wikidata": "Q5037565",
              "network:wikipedia": "es:Metrobús (Caracas)",
              "operator": "C.A. Metro de Caracas",
              "operator:wikidata": "Q21001826",
              "passenger": "local",
              "public_transport:version": "2",
              "ref": "501",
              "roundtrip": "yes",
              "route": "bus",
              "source": "C.A. Metro de Caracas (2013)",
              "type": "route",
              "wheelchair": "limited",
              "wikidata": "Q109318967"
            }
          }
        ]
      },
      "geometry": {
        "type": "LineString",
        "coordinates": [
          [
            -66.9551803,
            10.4987965
          ],
          [
            -66.9553339,
            10.4987562
          ],
          [
            -66.9555263,
            10.4986962
          ],
          [
            -66.9557114,
            10.4986382
          ],
          [
            -66.9557979,
            10.4986184
          ],
          [
            -66.9558874,
            10.4986115
          ],
          [
            -66.9559414,
            10.4986349
          ],
          [
            -66.9559836,
            10.4986652
          ],
          [
            -66.9560078,
            10.4987068
          ],
          [
            -66.9560219,
            10.498778
          ],
          [
            -66.9560158,
            10.4988386
          ],
          [
            -66.9560038,
            10.4988967
          ],
          [
            -66.9559702,
            10.4990074
          ],
          [
            -66.955926,
            10.4991156
          ],
          [
            -66.9555545,
            10.4999753
          ],
          [
            -66.9553493,
            10.5003907
          ],
          [
            -66.9552755,
            10.500541
          ],
          [
            -66.9552125,
            10.5006412
          ],
          [
            -66.9551615,
            10.5007045
          ],
          [
            -66.9551391,
            10.500726
          ],
          [
            -66.9551133,
            10.5007507
          ],
          [
            -66.9550382,
            10.5008008
          ],
          [
            -66.9547532,
            10.5009102
          ],
          [
            -66.9546164,
            10.5009821
          ],
          [
            -66.9544548,
            10.5010896
          ],
          [
            -66.9544025,
            10.5011753
          ],
          [
            -66.9542909,
            10.5014236
          ],
          [
            -66.9542697,
            10.5014707
          ],
          [
            -66.9542161,
            10.5016079
          ],
          [
            -66.9541915,
            10.5016771
          ]
        ]
      },
      "id": "way/991344382"
    },
    {
      "type": "Feature",
      "properties": {
        "@id": "way/991344431",
        "highway": "residential",
        "lanes": "2",
        "lit": "yes",
        "maxspeed": "40",
        "name": "Avenida 2",
        "oneway": "yes",
        "source": "Maxar (2021); Alcaldía de Caracas (2021)",
        "source:geometry": "Maxar (2021)",
        "source:name": "Alcaldía de Caracas (2021)",
        "surface": "asphalt",
        "@relations": [
          {
            "role": "",
            "rel": 6051875,
            "reltags": {
              "colour": "#c95b00",
              "description": "Conecta con el Metro Propatria",
              "fee": "yes",
              "name": "Metrobus 501: Casalta",
              "network": "Metrobus Caracas",
              "network:wikidata": "Q5037565",
              "network:wikipedia": "es:Metrobús (Caracas)",
              "operator": "C.A. Metro de Caracas",
              "operator:wikidata": "Q21001826",
              "passenger": "local",
              "public_transport:version": "2",
              "ref": "501",
              "roundtrip": "yes",
              "route": "bus",
              "source": "C.A. Metro de Caracas (2013)",
              "type": "route",
              "wheelchair": "limited",
              "wikidata": "Q109318967"
            }
          }
        ]
      },
      "geometry": {
        "type": "LineString",
        "coordinates": [
          [
            -66.9548524,
            10.5038548
          ],
          [
            -66.9549503,
            10.5038989
          ],
          [
            -66.9553424,
            10.5040633
          ],
          [
            -66.9555359,
            10.5041388
          ],
          [
            -66.95562,
            10.5041695
          ],
          [
            -66.9556982,
            10.5042011
          ],
          [
            -66.9560702,
            10.504373
          ]
        ]
      },
      "id": "way/991344431"
    },
    {
      "type": "Feature",
      "properties": {
        "@id": "way/991344508",
        "highway": "residential",
        "lanes": "2",
        "lit": "yes",
        "maxspeed": "40",
        "name": "Calle Central",
        "oneway": "no",
        "source": "Maxar (2021); Alcaldía de Caracas (2021)",
        "source:geometry": "Maxar (2021)",
        "source:name": "Alcaldía de Caracas (2021)",
        "surface": "asphalt",
        "@relations": [
          {
            "role": "",
            "rel": 6051875,
            "reltags": {
              "colour": "#c95b00",
              "description": "Conecta con el Metro Propatria",
              "fee": "yes",
              "name": "Metrobus 501: Casalta",
              "network": "Metrobus Caracas",
              "network:wikidata": "Q5037565",
              "network:wikipedia": "es:Metrobús (Caracas)",
              "operator": "C.A. Metro de Caracas",
              "operator:wikidata": "Q21001826",
              "passenger": "local",
              "public_transport:version": "2",
              "ref": "501",
              "roundtrip": "yes",
              "route": "bus",
              "source": "C.A. Metro de Caracas (2013)",
              "type": "route",
              "wheelchair": "limited",
              "wikidata": "Q109318967"
            }
          }
        ]
      },
      "geometry": {
        "type": "LineString",
        "coordinates": [
          [
            -66.9589448,
            10.4971679
          ],
          [
            -66.9589182,
            10.4971327
          ],
          [
            -66.9588798,
            10.497038
          ],
          [
            -66.9588355,
            10.4969582
          ],
          [
            -66.9587758,
            10.4969029
          ],
          [
            -66.9587054,
            10.4968666
          ],
          [
            -66.9586343,
            10.4968455
          ],
          [
            -66.9585371,
            10.496831
          ],
          [
            -66.9584278,
            10.4968218
          ],
          [
            -66.9583152,
            10.496825
          ],
          [
            -66.9582159,
            10.4968317
          ],
          [
            -66.958122,
            10.4968527
          ],
          [
            -66.9580617,
            10.4968804
          ],
          [
            -66.9579946,
            10.4969332
          ],
          [
            -66.9579376,
            10.4970018
          ],
          [
            -66.9577687,
            10.497193
          ],
          [
            -66.9576319,
            10.4973116
          ],
          [
            -66.9575286,
            10.4973894
          ],
          [
            -66.9574629,
            10.4974343
          ],
          [
            -66.957373,
            10.4974712
          ],
          [
            -66.9572309,
            10.4975345
          ],
          [
            -66.9570498,
            10.4975807
          ],
          [
            -66.9567065,
            10.497671
          ],
          [
            -66.9566656,
            10.4976782
          ],
          [
            -66.9566193,
            10.4976855
          ],
          [
            -66.9565194,
            10.4977158
          ],
          [
            -66.9563679,
            10.4977732
          ],
          [
            -66.9560661,
            10.4979031
          ],
          [
            -66.9557684,
            10.4980679
          ],
          [
            -66.9552085,
            10.4983567
          ],
          [
            -66.9551428,
            10.4984048
          ],
          [
            -66.9550891,
            10.4984971
          ],
          [
            -66.9550744,
            10.498542
          ],
          [
            -66.9550784,
            10.498633
          ],
          [
            -66.9551065,
            10.4987095
          ],
          [
            -66.9551803,
            10.4987965
          ]
        ]
      },
      "id": "way/991344508"
    },
    {
      "type": "Feature",
      "properties": {
        "@id": "way/991675808",
        "highway": "residential",
        "lanes": "2",
        "lit": "yes",
        "maxspeed": "40",
        "name": "Calle 1",
        "oneway": "yes",
        "source": "Maxar (2021); Alcaldía de Caracas (2021)",
        "source:geometry": "Maxar (2021)",
        "source:name": "Alcaldía de Caracas (2021)",
        "surface": "asphalt",
        "@relations": [
          {
            "role": "",
            "rel": 6051875,
            "reltags": {
              "colour": "#c95b00",
              "description": "Conecta con el Metro Propatria",
              "fee": "yes",
              "name": "Metrobus 501: Casalta",
              "network": "Metrobus Caracas",
              "network:wikidata": "Q5037565",
              "network:wikipedia": "es:Metrobús (Caracas)",
              "operator": "C.A. Metro de Caracas",
              "operator:wikidata": "Q21001826",
              "passenger": "local",
              "public_transport:version": "2",
              "ref": "501",
              "roundtrip": "yes",
              "route": "bus",
              "source": "C.A. Metro de Caracas (2013)",
              "type": "route",
              "wheelchair": "limited",
              "wikidata": "Q109318967"
            }
          }
        ]
      },
      "geometry": {
        "type": "LineString",
        "coordinates": [
          [
            -66.9538345,
            10.5026436
          ],
          [
            -66.9537883,
            10.502995
          ],
          [
            -66.9537601,
            10.5033275
          ],
          [
            -66.9537413,
            10.5036128
          ]
        ]
      },
      "id": "way/991675808"
    },
    {
      "type": "Feature",
      "properties": {
        "@id": "way/992220526",
        "highway": "residential",
        "lanes": "2",
        "lit": "yes",
        "maxspeed": "40",
        "name": "Avenida 1",
        "oneway": "no",
        "source": "Maxar (2021); Alcaldía de Caracas (2021)",
        "source:geometry": "Maxar (2021)",
        "source:name": "Alcaldía de Caracas (2021)",
        "surface": "asphalt",
        "@relations": [
          {
            "role": "",
            "rel": 6051875,
            "reltags": {
              "colour": "#c95b00",
              "description": "Conecta con el Metro Propatria",
              "fee": "yes",
              "name": "Metrobus 501: Casalta",
              "network": "Metrobus Caracas",
              "network:wikidata": "Q5037565",
              "network:wikipedia": "es:Metrobús (Caracas)",
              "operator": "C.A. Metro de Caracas",
              "operator:wikidata": "Q21001826",
              "passenger": "local",
              "public_transport:version": "2",
              "ref": "501",
              "roundtrip": "yes",
              "route": "bus",
              "source": "C.A. Metro de Caracas (2013)",
              "type": "route",
              "wheelchair": "limited",
              "wikidata": "Q109318967"
            }
          }
        ]
      },
      "geometry": {
        "type": "LineString",
        "coordinates": [
          [
            -66.9545648,
            10.5040072
          ],
          [
            -66.9542488,
            10.5038866
          ],
          [
            -66.9540172,
            10.5037983
          ],
          [
            -66.9538425,
            10.5036965
          ],
          [
            -66.9537413,
            10.5036128
          ]
        ]
      },
      "id": "way/992220526"
    },
    {
      "type": "Feature",
      "properties": {
        "@id": "way/992220527",
        "highway": "residential",
        "lanes": "2",
        "lit": "yes",
        "maxspeed": "40",
        "name": "Avenida Principal de Casalta",
        "oneway": "no",
        "source": "Maxar (2021); Alcaldía de Caracas (2021)",
        "source:geometry": "Maxar (2021)",
        "source:name": "Alcaldía de Caracas (2021)",
        "surface": "asphalt",
        "@relations": [
          {
            "role": "",
            "rel": 6051875,
            "reltags": {
              "colour": "#c95b00",
              "description": "Conecta con el Metro Propatria",
              "fee": "yes",
              "name": "Metrobus 501: Casalta",
              "network": "Metrobus Caracas",
              "network:wikidata": "Q5037565",
              "network:wikipedia": "es:Metrobús (Caracas)",
              "operator": "C.A. Metro de Caracas",
              "operator:wikidata": "Q21001826",
              "passenger": "local",
              "public_transport:version": "2",
              "ref": "501",
              "roundtrip": "yes",
              "route": "bus",
              "source": "C.A. Metro de Caracas (2013)",
              "type": "route",
              "wheelchair": "limited",
              "wikidata": "Q109318967"
            }
          }
        ]
      },
      "geometry": {
        "type": "LineString",
        "coordinates": [
          [
            -66.9601982,
            10.5010426
          ],
          [
            -66.9601451,
            10.5010026
          ],
          [
            -66.9600928,
            10.5009801
          ],
          [
            -66.9600391,
            10.5009722
          ],
          [
            -66.9599815,
            10.5009828
          ],
          [
            -66.9598889,
            10.5010184
          ],
          [
            -66.9595993,
            10.5011647
          ],
          [
            -66.9595335,
            10.5011898
          ],
          [
            -66.9594464,
            10.5012149
          ],
          [
            -66.9590849,
            10.5012762
          ],
          [
            -66.9588503,
            10.501321
          ],
          [
            -66.9586904,
            10.5013448
          ],
          [
            -66.9585807,
            10.5013507
          ],
          [
            -66.9584935,
            10.5013388
          ],
          [
            -66.9584453,
            10.5013183
          ],
          [
            -66.958407,
            10.5012986
          ],
          [
            -66.9583742,
            10.5012729
          ],
          [
            -66.9583533,
            10.5012452
          ],
          [
            -66.9583386,
            10.501203
          ],
          [
            -66.9583501,
            10.501079
          ],
          [
            -66.958344,
            10.5006716
          ],
          [
            -66.9583628,
            10.5004276
          ],
          [
            -66.9583721,
            10.500367
          ],
          [
            -66.9583949,
            10.5002733
          ],
          [
            -66.9584379,
            10.5001665
          ],
          [
            -66.9584996,
            10.5000149
          ],
          [
            -66.9586833,
            10.4996312
          ],
          [
            -66.9587986,
            10.4993727
          ],
          [
            -66.9588402,
            10.4992461
          ],
          [
            -66.9588523,
            10.4991925
          ],
          [
            -66.958859,
            10.499163
          ],
          [
            -66.9588724,
            10.4990628
          ],
          [
            -66.9588898,
            10.4986053
          ],
          [
            -66.9588894,
            10.4985288
          ],
          [
            -66.9588885,
            10.4983758
          ],
          [
            -66.9588965,
            10.4976505
          ],
          [
            -66.9588928,
            10.4974897
          ],
          [
            -66.9588912,
            10.4974224
          ],
          [
            -66.9588992,
            10.4973249
          ],
          [
            -66.958916,
            10.497251
          ],
          [
            -66.9589448,
            10.4971679
          ]
        ]
      },
      "id": "way/992220527"
    },
    {
      "type": "Feature",
      "properties": {
        "@id": "way/992220528",
        "highway": "residential",
        "lanes": "2",
        "lit": "yes",
        "maxspeed": "40",
        "name": "Avenida 3",
        "oneway": "no",
        "source": "Maxar (2021); Alcaldía de Caracas (2021)",
        "source:geometry": "Maxar (2021)",
        "source:name": "Alcaldía de Caracas (2021)",
        "surface": "asphalt",
        "@relations": [
          {
            "role": "",
            "rel": 6051875,
            "reltags": {
              "colour": "#c95b00",
              "description": "Conecta con el Metro Propatria",
              "fee": "yes",
              "name": "Metrobus 501: Casalta",
              "network": "Metrobus Caracas",
              "network:wikidata": "Q5037565",
              "network:wikipedia": "es:Metrobús (Caracas)",
              "operator": "C.A. Metro de Caracas",
              "operator:wikidata": "Q21001826",
              "passenger": "local",
              "public_transport:version": "2",
              "ref": "501",
              "roundtrip": "yes",
              "route": "bus",
              "source": "C.A. Metro de Caracas (2013)",
              "type": "route",
              "wheelchair": "limited",
              "wikidata": "Q109318967"
            }
          }
        ]
      },
      "geometry": {
        "type": "LineString",
        "coordinates": [
          [
            -66.9587144,
            10.5046213
          ],
          [
            -66.9594021,
            10.5048873
          ],
          [
            -66.9594444,
            10.5048932
          ],
          [
            -66.9594752,
            10.5048866
          ]
        ]
      },
      "id": "way/992220528"
    },
    {
      "type": "Feature",
      "properties": {
        "@id": "way/992220529",
        "highway": "residential",
        "lanes": "2",
        "lit": "yes",
        "maxspeed": "40",
        "name": "Calle 9",
        "oneway": "no",
        "source": "Maxar (2021); Alcaldía de Caracas (2021)",
        "source:geometry": "Maxar (2021)",
        "source:name": "Alcaldía de Caracas (2021)",
        "surface": "asphalt",
        "@relations": [
          {
            "role": "",
            "rel": 6051875,
            "reltags": {
              "colour": "#c95b00",
              "description": "Conecta con el Metro Propatria",
              "fee": "yes",
              "name": "Metrobus 501: Casalta",
              "network": "Metrobus Caracas",
              "network:wikidata": "Q5037565",
              "network:wikipedia": "es:Metrobús (Caracas)",
              "operator": "C.A. Metro de Caracas",
              "operator:wikidata": "Q21001826",
              "passenger": "local",
              "public_transport:version": "2",
              "ref": "501",
              "roundtrip": "yes",
              "route": "bus",
              "source": "C.A. Metro de Caracas (2013)",
              "type": "route",
              "wheelchair": "limited",
              "wikidata": "Q109318967"
            }
          }
        ]
      },
      "geometry": {
        "type": "LineString",
        "coordinates": [
          [
            -66.9587144,
            10.5046213
          ],
          [
            -66.958631,
            10.5048147
          ],
          [
            -66.9584658,
            10.5052024
          ],
          [
            -66.9583051,
            10.5055894
          ]
        ]
      },
      "id": "way/992220529"
    },
    {
      "type": "Feature",
      "properties": {
        "@id": "way/992220530",
        "alt_name": "Avenida Simón Bolívar",
        "bus:lanes": "yes|no|no|yes",
        "destination:backward": "El Amparo",
        "destination:forward": "23 de Enero",
        "highway": "secondary",
        "lanes": "4",
        "lanes:backward": "2",
        "lanes:forward": "2",
        "lit": "yes",
        "maxspeed": "40",
        "name": "Avenida Principal de Propatria",
        "oneway": "no",
        "source": "Maxar (2021); Alcaldía de Caracas (2021)",
        "source:geometry": "Maxar (2021)",
        "source:name": "Alcaldía de Caracas (2021)",
        "surface": "asphalt",
        "@relations": [
          {
            "role": "",
            "rel": 6051875,
            "reltags": {
              "colour": "#c95b00",
              "description": "Conecta con el Metro Propatria",
              "fee": "yes",
              "name": "Metrobus 501: Casalta",
              "network": "Metrobus Caracas",
              "network:wikidata": "Q5037565",
              "network:wikipedia": "es:Metrobús (Caracas)",
              "operator": "C.A. Metro de Caracas",
              "operator:wikidata": "Q21001826",
              "passenger": "local",
              "public_transport:version": "2",
              "ref": "501",
              "roundtrip": "yes",
              "route": "bus",
              "source": "C.A. Metro de Caracas (2013)",
              "type": "route",
              "wheelchair": "limited",
              "wikidata": "Q109318967"
            }
          }
        ]
      },
      "geometry": {
        "type": "LineString",
        "coordinates": [
          [
            -66.9583051,
            10.5055894
          ],
          [
            -66.9580684,
            10.5055406
          ],
          [
            -66.9578692,
            10.5054932
          ],
          [
            -66.9577435,
            10.5054664
          ],
          [
            -66.9571893,
            10.5053376
          ]
        ]
      },
      "id": "way/992220530"
    },
    {
      "type": "Feature",
      "properties": {
        "@id": "way/992220532",
        "highway": "residential",
        "lanes": "2",
        "lit": "yes",
        "maxspeed": "40",
        "name": "Calle 7",
        "oneway": "no",
        "source": "Maxar (2021); Alcaldía de Caracas (2021)",
        "source:geometry": "Maxar (2021)",
        "source:name": "Alcaldía de Caracas (2021)",
        "surface": "asphalt",
        "@relations": [
          {
            "role": "",
            "rel": 6051875,
            "reltags": {
              "colour": "#c95b00",
              "description": "Conecta con el Metro Propatria",
              "fee": "yes",
              "name": "Metrobus 501: Casalta",
              "network": "Metrobus Caracas",
              "network:wikidata": "Q5037565",
              "network:wikipedia": "es:Metrobús (Caracas)",
              "operator": "C.A. Metro de Caracas",
              "operator:wikidata": "Q21001826",
              "passenger": "local",
              "public_transport:version": "2",
              "ref": "501",
              "roundtrip": "yes",
              "route": "bus",
              "source": "C.A. Metro de Caracas (2013)",
              "type": "route",
              "wheelchair": "limited",
              "wikidata": "Q109318967"
            }
          }
        ]
      },
      "geometry": {
        "type": "LineString",
        "coordinates": [
          [
            -66.9573758,
            10.5048687
          ],
          [
            -66.9571893,
            10.5053376
          ]
        ]
      },
      "id": "way/992220532"
    },
    {
      "type": "Feature",
      "properties": {
        "@id": "way/997970690",
        "highway": "residential",
        "lanes": "2",
        "lit": "yes",
        "maxspeed": "40",
        "name": "Avenida 2",
        "oneway": "yes",
        "source": "Maxar (2021); Alcaldía de Caracas (2021)",
        "source:geometry": "Maxar (2021)",
        "source:name": "Alcaldía de Caracas (2021)",
        "surface": "asphalt",
        "@relations": [
          {
            "role": "",
            "rel": 6051875,
            "reltags": {
              "colour": "#c95b00",
              "description": "Conecta con el Metro Propatria",
              "fee": "yes",
              "name": "Metrobus 501: Casalta",
              "network": "Metrobus Caracas",
              "network:wikidata": "Q5037565",
              "network:wikipedia": "es:Metrobús (Caracas)",
              "operator": "C.A. Metro de Caracas",
              "operator:wikidata": "Q21001826",
              "passenger": "local",
              "public_transport:version": "2",
              "ref": "501",
              "roundtrip": "yes",
              "route": "bus",
              "source": "C.A. Metro de Caracas (2013)",
              "type": "route",
              "wheelchair": "limited",
              "wikidata": "Q109318967"
            }
          }
        ]
      },
      "geometry": {
        "type": "LineString",
        "coordinates": [
          [
            -66.9560702,
            10.504373
          ],
          [
            -66.9563741,
            10.50448
          ],
          [
            -66.9565603,
            10.5045416
          ],
          [
            -66.9573758,
            10.5048687
          ]
        ]
      },
      "id": "way/997970690"
    },
    {
      "type": "Feature",
      "properties": {
        "@id": "way/1220412102",
        "highway": "residential",
        "lanes": "2",
        "lit": "yes",
        "maxspeed": "40",
        "name": "Calle 1",
        "source:geometry": "Maxar (2021)",
        "source:name": "Alcaldía de Caracas (2021)",
        "surface": "asphalt",
        "@relations": [
          {
            "role": "",
            "rel": 6051875,
            "reltags": {
              "colour": "#c95b00",
              "description": "Conecta con el Metro Propatria",
              "fee": "yes",
              "name": "Metrobus 501: Casalta",
              "network": "Metrobus Caracas",
              "network:wikidata": "Q5037565",
              "network:wikipedia": "es:Metrobús (Caracas)",
              "operator": "C.A. Metro de Caracas",
              "operator:wikidata": "Q21001826",
              "passenger": "local",
              "public_transport:version": "2",
              "ref": "501",
              "roundtrip": "yes",
              "route": "bus",
              "source": "C.A. Metro de Caracas (2013)",
              "type": "route",
              "wheelchair": "limited",
              "wikidata": "Q109318967"
            }
          }
        ]
      },
      "geometry": {
        "type": "LineString",
        "coordinates": [
          [
            -66.9541915,
            10.5016771
          ],
          [
            -66.9540122,
            10.50213
          ],
          [
            -66.9538345,
            10.5026436
          ]
        ]
      },
      "id": "way/1220412102"
    },
    {
      "type": "Feature",
      "properties": {
        "@id": "node/3255846725",
        "bench": "no",
        "highway": "bus_stop",
        "name": "Metro Propatria",
        "network": "Metrobus Caracas",
        "network:wikidata": "Q5037565",
        "network:wikipedia": "es:Metrobús (Caracas)",
        "operator": "C.A. Metro de Caracas",
        "operator:wikidata": "Q21001826",
        "public_transport": "platform",
        "shelter": "no",
        "source": "Maxar (2021); C.A. Metro de Caracas (2004); local knowledge",
        "wheelchair": "limited",
        "@relations": [
          {
            "role": "platform",
            "rel": 6051875,
            "reltags": {
              "colour": "#c95b00",
              "description": "Conecta con el Metro Propatria",
              "fee": "yes",
              "name": "Metrobus 501: Casalta",
              "network": "Metrobus Caracas",
              "network:wikidata": "Q5037565",
              "network:wikipedia": "es:Metrobús (Caracas)",
              "operator": "C.A. Metro de Caracas",
              "operator:wikidata": "Q21001826",
              "passenger": "local",
              "public_transport:version": "2",
              "ref": "501",
              "roundtrip": "yes",
              "route": "bus",
              "source": "C.A. Metro de Caracas (2013)",
              "type": "route",
              "wheelchair": "limited",
              "wikidata": "Q109318967"
            }
          },
          {
            "role": "platform",
            "rel": 6051875,
            "reltags": {
              "colour": "#c95b00",
              "description": "Conecta con el Metro Propatria",
              "fee": "yes",
              "name": "Metrobus 501: Casalta",
              "network": "Metrobus Caracas",
              "network:wikidata": "Q5037565",
              "network:wikipedia": "es:Metrobús (Caracas)",
              "operator": "C.A. Metro de Caracas",
              "operator:wikidata": "Q21001826",
              "passenger": "local",
              "public_transport:version": "2",
              "ref": "501",
              "roundtrip": "yes",
              "route": "bus",
              "source": "C.A. Metro de Caracas (2013)",
              "type": "route",
              "wheelchair": "limited",
              "wikidata": "Q109318967"
            }
          }
        ]
      },
      "geometry": {
        "type": "Point",
        "coordinates": [
          -66.9560237,
          10.5044649
        ]
      },
      "id": "node/3255846725"
    },
    {
      "type": "Feature",
      "properties": {
        "@id": "node/3255863365",
        "bench": "no",
        "highway": "bus_stop",
        "name": "Mariano Picón",
        "network": "Metrobus Caracas",
        "network:wikidata": "Q5037565",
        "network:wikipedia": "es:Metrobús (Caracas)",
        "operator": "C.A. Metro de Caracas",
        "operator:wikidata": "Q21001826",
        "public_transport": "platform",
        "shelter": "no",
        "source": "Maxar (2021); C.A. Metro de Caracas (2004); local knowledge",
        "wheelchair": "limited",
        "@relations": [
          {
            "role": "platform",
            "rel": 6051875,
            "reltags": {
              "colour": "#c95b00",
              "description": "Conecta con el Metro Propatria",
              "fee": "yes",
              "name": "Metrobus 501: Casalta",
              "network": "Metrobus Caracas",
              "network:wikidata": "Q5037565",
              "network:wikipedia": "es:Metrobús (Caracas)",
              "operator": "C.A. Metro de Caracas",
              "operator:wikidata": "Q21001826",
              "passenger": "local",
              "public_transport:version": "2",
              "ref": "501",
              "roundtrip": "yes",
              "route": "bus",
              "source": "C.A. Metro de Caracas (2013)",
              "type": "route",
              "wheelchair": "limited",
              "wikidata": "Q109318967"
            }
          }
        ]
      },
      "geometry": {
        "type": "Point",
        "coordinates": [
          -66.9584951,
          10.5052237
        ]
      },
      "id": "node/3255863365"
    },
    {
      "type": "Feature",
      "properties": {
        "@id": "node/3257459472",
        "bench": "no",
        "highway": "bus_stop",
        "name": "Calle 10",
        "network": "Metrobus Caracas",
        "network:wikidata": "Q5037565",
        "network:wikipedia": "es:Metrobús (Caracas)",
        "operator": "C.A. Metro de Caracas",
        "operator:wikidata": "Q21001826",
        "public_transport": "platform",
        "shelter": "no",
        "source": "Maxar (2021); C.A. Metro de Caracas (2004); local knowledge",
        "wheelchair": "limited",
        "@relations": [
          {
            "role": "platform",
            "rel": 6051875,
            "reltags": {
              "colour": "#c95b00",
              "description": "Conecta con el Metro Propatria",
              "fee": "yes",
              "name": "Metrobus 501: Casalta",
              "network": "Metrobus Caracas",
              "network:wikidata": "Q5037565",
              "network:wikipedia": "es:Metrobús (Caracas)",
              "operator": "C.A. Metro de Caracas",
              "operator:wikidata": "Q21001826",
              "passenger": "local",
              "public_transport:version": "2",
              "ref": "501",
              "roundtrip": "yes",
              "route": "bus",
              "source": "C.A. Metro de Caracas (2013)",
              "type": "route",
              "wheelchair": "limited",
              "wikidata": "Q109318967"
            }
          }
        ]
      },
      "geometry": {
        "type": "Point",
        "coordinates": [
          -66.9600694,
          10.5027494
        ]
      },
      "id": "node/3257459472"
    },
    {
      "type": "Feature",
      "properties": {
        "@id": "node/3257459473",
        "bench": "no",
        "highway": "bus_stop",
        "name": "Casa del Obrero",
        "network": "Metrobus Caracas",
        "network:wikidata": "Q5037565",
        "network:wikipedia": "es:Metrobús (Caracas)",
        "operator": "C.A. Metro de Caracas",
        "operator:wikidata": "Q21001826",
        "public_transport": "platform",
        "shelter": "no",
        "source": "Maxar (2021); C.A. Metro de Caracas (2004); local knowledge",
        "wheelchair": "limited",
        "@relations": [
          {
            "role": "platform",
            "rel": 6051875,
            "reltags": {
              "colour": "#c95b00",
              "description": "Conecta con el Metro Propatria",
              "fee": "yes",
              "name": "Metrobus 501: Casalta",
              "network": "Metrobus Caracas",
              "network:wikidata": "Q5037565",
              "network:wikipedia": "es:Metrobús (Caracas)",
              "operator": "C.A. Metro de Caracas",
              "operator:wikidata": "Q21001826",
              "passenger": "local",
              "public_transport:version": "2",
              "ref": "501",
              "roundtrip": "yes",
              "route": "bus",
              "source": "C.A. Metro de Caracas (2013)",
              "type": "route",
              "wheelchair": "limited",
              "wikidata": "Q109318967"
            }
          }
        ]
      },
      "geometry": {
        "type": "Point",
        "coordinates": [
          -66.9595822,
          10.5047689
        ]
      },
      "id": "node/3257459473"
    },
    {
      "type": "Feature",
      "properties": {
        "@id": "node/3257459474",
        "bench": "no",
        "highway": "bus_stop",
        "name": "El Solitario",
        "network": "Metrobus Caracas",
        "network:wikidata": "Q5037565",
        "network:wikipedia": "es:Metrobús (Caracas)",
        "operator": "C.A. Metro de Caracas",
        "operator:wikidata": "Q21001826",
        "public_transport": "platform",
        "shelter": "no",
        "source": "Maxar (2021); C.A. Metro de Caracas (2004); local knowledge",
        "wheelchair": "limited",
        "@relations": [
          {
            "role": "platform",
            "rel": 6051875,
            "reltags": {
              "colour": "#c95b00",
              "description": "Conecta con el Metro Propatria",
              "fee": "yes",
              "name": "Metrobus 501: Casalta",
              "network": "Metrobus Caracas",
              "network:wikidata": "Q5037565",
              "network:wikipedia": "es:Metrobús (Caracas)",
              "operator": "C.A. Metro de Caracas",
              "operator:wikidata": "Q21001826",
              "passenger": "local",
              "public_transport:version": "2",
              "ref": "501",
              "roundtrip": "yes",
              "route": "bus",
              "source": "C.A. Metro de Caracas (2013)",
              "type": "route",
              "wheelchair": "limited",
              "wikidata": "Q109318967"
            }
          }
        ]
      },
      "geometry": {
        "type": "Point",
        "coordinates": [
          -66.9584117,
          10.5012723
        ]
      },
      "id": "node/3257459474"
    },
    {
      "type": "Feature",
      "properties": {
        "@id": "node/3257459475",
        "bench": "no",
        "highway": "bus_stop",
        "name": "Libertador",
        "network": "Metrobus Caracas",
        "network:wikidata": "Q5037565",
        "network:wikipedia": "es:Metrobús (Caracas)",
        "operator": "C.A. Metro de Caracas",
        "operator:wikidata": "Q21001826",
        "public_transport": "platform",
        "shelter": "no",
        "source": "Maxar (2021); C.A. Metro de Caracas (2004); local knowledge",
        "wheelchair": "limited",
        "@relations": [
          {
            "role": "platform",
            "rel": 6051875,
            "reltags": {
              "colour": "#c95b00",
              "description": "Conecta con el Metro Propatria",
              "fee": "yes",
              "name": "Metrobus 501: Casalta",
              "network": "Metrobus Caracas",
              "network:wikidata": "Q5037565",
              "network:wikipedia": "es:Metrobús (Caracas)",
              "operator": "C.A. Metro de Caracas",
              "operator:wikidata": "Q21001826",
              "passenger": "local",
              "public_transport:version": "2",
              "ref": "501",
              "roundtrip": "yes",
              "route": "bus",
              "source": "C.A. Metro de Caracas (2013)",
              "type": "route",
              "wheelchair": "limited",
              "wikidata": "Q109318967"
            }
          }
        ]
      },
      "geometry": {
        "type": "Point",
        "coordinates": [
          -66.9602804,
          10.5010211
        ]
      },
      "id": "node/3257459475"
    },
    {
      "type": "Feature",
      "properties": {
        "@id": "node/3257459476",
        "bench": "no",
        "highway": "bus_stop",
        "name": "Virgen Niña",
        "network": "Metrobus Caracas",
        "network:wikidata": "Q5037565",
        "network:wikipedia": "es:Metrobús (Caracas)",
        "operator": "C.A. Metro de Caracas",
        "operator:wikidata": "Q21001826",
        "public_transport": "platform",
        "shelter": "no",
        "source": "Maxar (2021); C.A. Metro de Caracas (2004); local knowledge",
        "wheelchair": "limited",
        "@relations": [
          {
            "role": "platform",
            "rel": 6051875,
            "reltags": {
              "colour": "#c95b00",
              "description": "Conecta con el Metro Propatria",
              "fee": "yes",
              "name": "Metrobus 501: Casalta",
              "network": "Metrobus Caracas",
              "network:wikidata": "Q5037565",
              "network:wikipedia": "es:Metrobús (Caracas)",
              "operator": "C.A. Metro de Caracas",
              "operator:wikidata": "Q21001826",
              "passenger": "local",
              "public_transport:version": "2",
              "ref": "501",
              "roundtrip": "yes",
              "route": "bus",
              "source": "C.A. Metro de Caracas (2013)",
              "type": "route",
              "wheelchair": "limited",
              "wikidata": "Q109318967"
            }
          }
        ]
      },
      "geometry": {
        "type": "Point",
        "coordinates": [
          -66.9589241,
          10.4971061
        ]
      },
      "id": "node/3257459476"
    },
    {
      "type": "Feature",
      "properties": {
        "@id": "node/3257467942",
        "bench": "no",
        "bus": "yes",
        "highway": "bus_stop",
        "name": "Miranda",
        "network": "Metrobus Caracas",
        "network:wikidata": "Q5037565",
        "network:wikipedia": "es:Metrobús (Caracas)",
        "operator": "C.A. Metro de Caracas",
        "operator:wikidata": "Q21001826",
        "public_transport": "platform",
        "shelter": "no",
        "source": "Maxar (2021); C.A. Metro de Caracas (2004); local knowledge",
        "wheelchair": "limited",
        "@relations": [
          {
            "role": "platform",
            "rel": 6051875,
            "reltags": {
              "colour": "#c95b00",
              "description": "Conecta con el Metro Propatria",
              "fee": "yes",
              "name": "Metrobus 501: Casalta",
              "network": "Metrobus Caracas",
              "network:wikidata": "Q5037565",
              "network:wikipedia": "es:Metrobús (Caracas)",
              "operator": "C.A. Metro de Caracas",
              "operator:wikidata": "Q21001826",
              "passenger": "local",
              "public_transport:version": "2",
              "ref": "501",
              "roundtrip": "yes",
              "route": "bus",
              "source": "C.A. Metro de Caracas (2013)",
              "type": "route",
              "wheelchair": "limited",
              "wikidata": "Q109318967"
            }
          }
        ]
      },
      "geometry": {
        "type": "Point",
        "coordinates": [
          -66.9552803,
          10.5003615
        ]
      },
      "id": "node/3257467942"
    },
    {
      "type": "Feature",
      "properties": {
        "@id": "node/3257467943",
        "bench": "no",
        "bus": "yes",
        "highway": "bus_stop",
        "name": "Alma Llanera",
        "network": "Metrobus Caracas",
        "network:wikidata": "Q5037565",
        "network:wikipedia": "es:Metrobús (Caracas)",
        "operator": "C.A. Metro de Caracas",
        "operator:wikidata": "Q21001826",
        "public_transport": "platform",
        "shelter": "no",
        "source": "Maxar (2021); C.A. Metro de Caracas (2004); local knowledge",
        "wheelchair": "limited",
        "@relations": [
          {
            "role": "platform",
            "rel": 6051875,
            "reltags": {
              "colour": "#c95b00",
              "description": "Conecta con el Metro Propatria",
              "fee": "yes",
              "name": "Metrobus 501: Casalta",
              "network": "Metrobus Caracas",
              "network:wikidata": "Q5037565",
              "network:wikipedia": "es:Metrobús (Caracas)",
              "operator": "C.A. Metro de Caracas",
              "operator:wikidata": "Q21001826",
              "passenger": "local",
              "public_transport:version": "2",
              "ref": "501",
              "roundtrip": "yes",
              "route": "bus",
              "source": "C.A. Metro de Caracas (2013)",
              "type": "route",
              "wheelchair": "limited",
              "wikidata": "Q109318967"
            }
          }
        ]
      },
      "geometry": {
        "type": "Point",
        "coordinates": [
          -66.9539458,
          10.5020974
        ]
      },
      "id": "node/3257467943"
    },
    {
      "type": "Feature",
      "properties": {
        "@id": "node/3257467944",
        "bench": "no",
        "bus": "yes",
        "highway": "bus_stop",
        "name": "Centro Comercial Propatria",
        "network": "Metrobus Caracas",
        "network:wikidata": "Q5037565",
        "network:wikipedia": "es:Metrobús (Caracas)",
        "operator": "C.A. Metro de Caracas",
        "operator:wikidata": "Q21001826",
        "public_transport": "platform",
        "shelter": "no",
        "source": "Maxar (2021); C.A. Metro de Caracas (2004); local knowledge",
        "wheelchair": "limited",
        "@relations": [
          {
            "role": "platform",
            "rel": 6051875,
            "reltags": {
              "colour": "#c95b00",
              "description": "Conecta con el Metro Propatria",
              "fee": "yes",
              "name": "Metrobus 501: Casalta",
              "network": "Metrobus Caracas",
              "network:wikidata": "Q5037565",
              "network:wikipedia": "es:Metrobús (Caracas)",
              "operator": "C.A. Metro de Caracas",
              "operator:wikidata": "Q21001826",
              "passenger": "local",
              "public_transport:version": "2",
              "ref": "501",
              "roundtrip": "yes",
              "route": "bus",
              "source": "C.A. Metro de Caracas (2013)",
              "type": "route",
              "wheelchair": "limited",
              "wikidata": "Q109318967"
            }
          }
        ]
      },
      "geometry": {
        "type": "Point",
        "coordinates": [
          -66.954237,
          10.5039478
        ]
      },
      "id": "node/3257467944"
    },
    {
      "type": "Feature",
      "properties": {
        "@id": "node/3257467945",
        "bench": "no",
        "bus": "yes",
        "highway": "bus_stop",
        "name": "Estadio",
        "network": "Metrobus Caracas",
        "network:wikidata": "Q5037565",
        "network:wikipedia": "es:Metrobús (Caracas)",
        "operator": "C.A. Metro de Caracas",
        "operator:wikidata": "Q21001826",
        "public_transport": "platform",
        "shelter": "no",
        "source": "Maxar (2021); C.A. Metro de Caracas (2004); local knowledge",
        "wheelchair": "limited",
        "@relations": [
          {
            "role": "platform",
            "rel": 6051875,
            "reltags": {
              "colour": "#c95b00",
              "description": "Conecta con el Metro Propatria",
              "fee": "yes",
              "name": "Metrobus 501: Casalta",
              "network": "Metrobus Caracas",
              "network:wikidata": "Q5037565",
              "network:wikipedia": "es:Metrobús (Caracas)",
              "operator": "C.A. Metro de Caracas",
              "operator:wikidata": "Q21001826",
              "passenger": "local",
              "public_transport:version": "2",
              "ref": "501",
              "roundtrip": "yes",
              "route": "bus",
              "source": "C.A. Metro de Caracas (2013)",
              "type": "route",
              "wheelchair": "limited",
              "wikidata": "Q109318967"
            }
          }
        ]
      },
      "geometry": {
        "type": "Point",
        "coordinates": [
          -66.9559226,
          10.4988968
        ]
      },
      "id": "node/3257467945"
    },
    {
      "type": "Feature",
      "properties": {
        "@id": "node/3257467946",
        "bench": "no",
        "bus": "yes",
        "highway": "bus_stop",
        "name": "Yaruma",
        "network": "Metrobus Caracas",
        "network:wikidata": "Q5037565",
        "network:wikipedia": "es:Metrobús (Caracas)",
        "operator": "C.A. Metro de Caracas",
        "operator:wikidata": "Q21001826",
        "public_transport": "platform",
        "shelter": "no",
        "source": "Maxar (2021); C.A. Metro de Caracas (2004); local knowledge",
        "wheelchair": "limited",
        "@relations": [
          {
            "role": "platform",
            "rel": 6051875,
            "reltags": {
              "colour": "#c95b00",
              "description": "Conecta con el Metro Propatria",
              "fee": "yes",
              "name": "Metrobus 501: Casalta",
              "network": "Metrobus Caracas",
              "network:wikidata": "Q5037565",
              "network:wikipedia": "es:Metrobús (Caracas)",
              "operator": "C.A. Metro de Caracas",
              "operator:wikidata": "Q21001826",
              "passenger": "local",
              "public_transport:version": "2",
              "ref": "501",
              "roundtrip": "yes",
              "route": "bus",
              "source": "C.A. Metro de Caracas (2013)",
              "type": "route",
              "wheelchair": "limited",
              "wikidata": "Q109318967"
            }
          }
        ]
      },
      "geometry": {
        "type": "Point",
        "coordinates": [
          -66.9550768,
          10.4984248
        ]
      },
      "id": "node/3257467946"
    },
    {
      "type": "Feature",
      "properties": {
        "@id": "node/3945186700",
        "bench": "no",
        "bus": "yes",
        "highway": "bus_stop",
        "name": "Salto Angel",
        "network": "Metrobus Caracas",
        "network:wikidata": "Q5037565",
        "network:wikipedia": "es:Metrobús (Caracas)",
        "operator": "C.A. Metro de Caracas",
        "operator:wikidata": "Q21001826",
        "public_transport": "platform",
        "shelter": "no",
        "source": "Maxar (2021); C.A. Metro de Caracas (2004); local knowledge",
        "wheelchair": "limited",
        "@relations": [
          {
            "role": "platform",
            "rel": 6051875,
            "reltags": {
              "colour": "#c95b00",
              "description": "Conecta con el Metro Propatria",
              "fee": "yes",
              "name": "Metrobus 501: Casalta",
              "network": "Metrobus Caracas",
              "network:wikidata": "Q5037565",
              "network:wikipedia": "es:Metrobús (Caracas)",
              "operator": "C.A. Metro de Caracas",
              "operator:wikidata": "Q21001826",
              "passenger": "local",
              "public_transport:version": "2",
              "ref": "501",
              "roundtrip": "yes",
              "route": "bus",
              "source": "C.A. Metro de Caracas (2013)",
              "type": "route",
              "wheelchair": "limited",
              "wikidata": "Q109318967"
            }
          }
        ]
      },
      "geometry": {
        "type": "Point",
        "coordinates": [
          -66.9566942,
          10.4976423
        ]
      },
      "id": "node/3945186700"
    },
    {
      "type": "Feature",
      "properties": {
        "@id": "node/3945186701",
        "bench": "no",
        "highway": "bus_stop",
        "name": "Yurubí",
        "network": "Metrobus Caracas",
        "network:wikidata": "Q5037565",
        "network:wikipedia": "es:Metrobús (Caracas)",
        "operator": "C.A. Metro de Caracas",
        "operator:wikidata": "Q21001826",
        "public_transport": "platform",
        "shelter": "no",
        "source": "Maxar (2021); C.A. Metro de Caracas (2004); local knowledge",
        "wheelchair": "limited",
        "@relations": [
          {
            "role": "platform",
            "rel": 6051875,
            "reltags": {
              "colour": "#c95b00",
              "description": "Conecta con el Metro Propatria",
              "fee": "yes",
              "name": "Metrobus 501: Casalta",
              "network": "Metrobus Caracas",
              "network:wikidata": "Q5037565",
              "network:wikipedia": "es:Metrobús (Caracas)",
              "operator": "C.A. Metro de Caracas",
              "operator:wikidata": "Q21001826",
              "passenger": "local",
              "public_transport:version": "2",
              "ref": "501",
              "roundtrip": "yes",
              "route": "bus",
              "source": "C.A. Metro de Caracas (2013)",
              "type": "route",
              "wheelchair": "limited",
              "wikidata": "Q109318967"
            }
          }
        ]
      },
      "geometry": {
        "type": "Point",
        "coordinates": [
          -66.9589338,
          10.498528
        ]
      },
      "id": "node/3945186701"
    },
    {
      "type": "Feature",
      "properties": {
        "@id": "node/9159466691",
        "bus": "yes",
        "name": "Alma Llanera",
        "network": "Metrobus Caracas",
        "network:wikidata": "Q5037565",
        "network:wikipedia": "es:Metrobús (Caracas)",
        "operator": "C.A. Metro de Caracas",
        "operator:wikidata": "Q21001826",
        "public_transport": "stop_position",
        "source": "Maxar (2021); C.A. Metro de Caracas (2004); local knowledge",
        "@relations": [
          {
            "role": "stop",
            "rel": 6051875,
            "reltags": {
              "colour": "#c95b00",
              "description": "Conecta con el Metro Propatria",
              "fee": "yes",
              "name": "Metrobus 501: Casalta",
              "network": "Metrobus Caracas",
              "network:wikidata": "Q5037565",
              "network:wikipedia": "es:Metrobús (Caracas)",
              "operator": "C.A. Metro de Caracas",
              "operator:wikidata": "Q21001826",
              "passenger": "local",
              "public_transport:version": "2",
              "ref": "501",
              "roundtrip": "yes",
              "route": "bus",
              "source": "C.A. Metro de Caracas (2013)",
              "type": "route",
              "wheelchair": "limited",
              "wikidata": "Q109318967"
            }
          }
        ]
      },
      "geometry": {
        "type": "Point",
        "coordinates": [
          -66.9540122,
          10.50213
        ]
      },
      "id": "node/9159466691"
    },
    {
      "type": "Feature",
      "properties": {
        "@id": "node/9159466705",
        "bus": "yes",
        "name": "Miranda",
        "network": "Metrobus Caracas",
        "network:wikidata": "Q5037565",
        "network:wikipedia": "es:Metrobús (Caracas)",
        "operator": "C.A. Metro de Caracas",
        "operator:wikidata": "Q21001826",
        "public_transport": "stop_position",
        "source": "Maxar (2021); C.A. Metro de Caracas (2004); local knowledge",
        "@relations": [
          {
            "role": "stop",
            "rel": 6051875,
            "reltags": {
              "colour": "#c95b00",
              "description": "Conecta con el Metro Propatria",
              "fee": "yes",
              "name": "Metrobus 501: Casalta",
              "network": "Metrobus Caracas",
              "network:wikidata": "Q5037565",
              "network:wikipedia": "es:Metrobús (Caracas)",
              "operator": "C.A. Metro de Caracas",
              "operator:wikidata": "Q21001826",
              "passenger": "local",
              "public_transport:version": "2",
              "ref": "501",
              "roundtrip": "yes",
              "route": "bus",
              "source": "C.A. Metro de Caracas (2013)",
              "type": "route",
              "wheelchair": "limited",
              "wikidata": "Q109318967"
            }
          }
        ]
      },
      "geometry": {
        "type": "Point",
        "coordinates": [
          -66.9553493,
          10.5003907
        ]
      },
      "id": "node/9159466705"
    },
    {
      "type": "Feature",
      "properties": {
        "@id": "node/9159466709",
        "bus": "yes",
        "name": "Estadio",
        "network": "Metrobus Caracas",
        "network:wikidata": "Q5037565",
        "network:wikipedia": "es:Metrobús (Caracas)",
        "operator": "C.A. Metro de Caracas",
        "operator:wikidata": "Q21001826",
        "public_transport": "stop_position",
        "source": "Maxar (2021); C.A. Metro de Caracas (2004); local knowledge",
        "@relations": [
          {
            "role": "stop",
            "rel": 6051875,
            "reltags": {
              "colour": "#c95b00",
              "description": "Conecta con el Metro Propatria",
              "fee": "yes",
              "name": "Metrobus 501: Casalta",
              "network": "Metrobus Caracas",
              "network:wikidata": "Q5037565",
              "network:wikipedia": "es:Metrobús (Caracas)",
              "operator": "C.A. Metro de Caracas",
              "operator:wikidata": "Q21001826",
              "passenger": "local",
              "public_transport:version": "2",
              "ref": "501",
              "roundtrip": "yes",
              "route": "bus",
              "source": "C.A. Metro de Caracas (2013)",
              "type": "route",
              "wheelchair": "limited",
              "wikidata": "Q109318967"
            }
          }
        ]
      },
      "geometry": {
        "type": "Point",
        "coordinates": [
          -66.9560038,
          10.4988967
        ]
      },
      "id": "node/9159466709"
    },
    {
      "type": "Feature",
      "properties": {
        "@id": "node/9159468765",
        "bus": "yes",
        "name": "Yaruma",
        "network": "Metrobus Caracas",
        "network:wikidata": "Q5037565",
        "network:wikipedia": "es:Metrobús (Caracas)",
        "operator": "C.A. Metro de Caracas",
        "operator:wikidata": "Q21001826",
        "public_transport": "stop_position",
        "source": "Maxar (2021); C.A. Metro de Caracas (2004); local knowledge",
        "@relations": [
          {
            "role": "stop",
            "rel": 6051875,
            "reltags": {
              "colour": "#c95b00",
              "description": "Conecta con el Metro Propatria",
              "fee": "yes",
              "name": "Metrobus 501: Casalta",
              "network": "Metrobus Caracas",
              "network:wikidata": "Q5037565",
              "network:wikipedia": "es:Metrobús (Caracas)",
              "operator": "C.A. Metro de Caracas",
              "operator:wikidata": "Q21001826",
              "passenger": "local",
              "public_transport:version": "2",
              "ref": "501",
              "roundtrip": "yes",
              "route": "bus",
              "source": "C.A. Metro de Caracas (2013)",
              "type": "route",
              "wheelchair": "limited",
              "wikidata": "Q109318967"
            }
          }
        ]
      },
      "geometry": {
        "type": "Point",
        "coordinates": [
          -66.9551428,
          10.4984048
        ]
      },
      "id": "node/9159468765"
    },
    {
      "type": "Feature",
      "properties": {
        "@id": "node/9159469769",
        "bus": "yes",
        "name": "El Solitario",
        "network": "Metrobus Caracas",
        "network:wikidata": "Q5037565",
        "network:wikipedia": "es:Metrobús (Caracas)",
        "operator": "C.A. Metro de Caracas",
        "operator:wikidata": "Q21001826",
        "public_transport": "stop_position",
        "source": "Maxar (2021); C.A. Metro de Caracas (2004); local knowledge",
        "@relations": [
          {
            "role": "stop",
            "rel": 6051875,
            "reltags": {
              "colour": "#c95b00",
              "description": "Conecta con el Metro Propatria",
              "fee": "yes",
              "name": "Metrobus 501: Casalta",
              "network": "Metrobus Caracas",
              "network:wikidata": "Q5037565",
              "network:wikipedia": "es:Metrobús (Caracas)",
              "operator": "C.A. Metro de Caracas",
              "operator:wikidata": "Q21001826",
              "passenger": "local",
              "public_transport:version": "2",
              "ref": "501",
              "roundtrip": "yes",
              "route": "bus",
              "source": "C.A. Metro de Caracas (2013)",
              "type": "route",
              "wheelchair": "limited",
              "wikidata": "Q109318967"
            }
          }
        ]
      },
      "geometry": {
        "type": "Point",
        "coordinates": [
          -66.958407,
          10.5012986
        ]
      },
      "id": "node/9159469769"
    },
    {
      "type": "Feature",
      "properties": {
        "@id": "node/9210235490",
        "bus": "yes",
        "name": "Centro Comercial Propatria",
        "network": "Metrobus Caracas",
        "network:wikidata": "Q5037565",
        "network:wikipedia": "es:Metrobús (Caracas)",
        "operator": "C.A. Metro de Caracas",
        "operator:wikidata": "Q21001826",
        "public_transport": "stop_position",
        "source": "Maxar (2021); C.A. Metro de Caracas (2004); local knowledge",
        "@relations": [
          {
            "role": "stop",
            "rel": 6051875,
            "reltags": {
              "colour": "#c95b00",
              "description": "Conecta con el Metro Propatria",
              "fee": "yes",
              "name": "Metrobus 501: Casalta",
              "network": "Metrobus Caracas",
              "network:wikidata": "Q5037565",
              "network:wikipedia": "es:Metrobús (Caracas)",
              "operator": "C.A. Metro de Caracas",
              "operator:wikidata": "Q21001826",
              "passenger": "local",
              "public_transport:version": "2",
              "ref": "501",
              "roundtrip": "yes",
              "route": "bus",
              "source": "C.A. Metro de Caracas (2013)",
              "type": "route",
              "wheelchair": "limited",
              "wikidata": "Q109318967"
            }
          }
        ]
      },
      "geometry": {
        "type": "Point",
        "coordinates": [
          -66.9542488,
          10.5038866
        ]
      },
      "id": "node/9210235490"
    },
    {
      "type": "Feature",
      "properties": {
        "@id": "node/9210235491",
        "bus": "yes",
        "name": "Salto Angel",
        "network": "Metrobus Caracas",
        "network:wikidata": "Q5037565",
        "network:wikipedia": "es:Metrobús (Caracas)",
        "operator": "C.A. Metro de Caracas",
        "operator:wikidata": "Q21001826",
        "public_transport": "stop_position",
        "source": "Maxar (2021); C.A. Metro de Caracas (2004); local knowledge",
        "@relations": [
          {
            "role": "stop",
            "rel": 6051875,
            "reltags": {
              "colour": "#c95b00",
              "description": "Conecta con el Metro Propatria",
              "fee": "yes",
              "name": "Metrobus 501: Casalta",
              "network": "Metrobus Caracas",
              "network:wikidata": "Q5037565",
              "network:wikipedia": "es:Metrobús (Caracas)",
              "operator": "C.A. Metro de Caracas",
              "operator:wikidata": "Q21001826",
              "passenger": "local",
              "public_transport:version": "2",
              "ref": "501",
              "roundtrip": "yes",
              "route": "bus",
              "source": "C.A. Metro de Caracas (2013)",
              "type": "route",
              "wheelchair": "limited",
              "wikidata": "Q109318967"
            }
          }
        ]
      },
      "geometry": {
        "type": "Point",
        "coordinates": [
          -66.9567065,
          10.497671
        ]
      },
      "id": "node/9210235491"
    },
    {
      "type": "Feature",
      "properties": {
        "@id": "node/9210235492",
        "bus": "yes",
        "name": "Virgen Niña",
        "network": "Metrobus Caracas",
        "network:wikidata": "Q5037565",
        "network:wikipedia": "es:Metrobús (Caracas)",
        "operator": "C.A. Metro de Caracas",
        "operator:wikidata": "Q21001826",
        "public_transport": "stop_position",
        "source": "Maxar (2021); C.A. Metro de Caracas (2004); local knowledge",
        "@relations": [
          {
            "role": "stop",
            "rel": 6051875,
            "reltags": {
              "colour": "#c95b00",
              "description": "Conecta con el Metro Propatria",
              "fee": "yes",
              "name": "Metrobus 501: Casalta",
              "network": "Metrobus Caracas",
              "network:wikidata": "Q5037565",
              "network:wikipedia": "es:Metrobús (Caracas)",
              "operator": "C.A. Metro de Caracas",
              "operator:wikidata": "Q21001826",
              "passenger": "local",
              "public_transport:version": "2",
              "ref": "501",
              "roundtrip": "yes",
              "route": "bus",
              "source": "C.A. Metro de Caracas (2013)",
              "type": "route",
              "wheelchair": "limited",
              "wikidata": "Q109318967"
            }
          }
        ]
      },
      "geometry": {
        "type": "Point",
        "coordinates": [
          -66.9589182,
          10.4971327
        ]
      },
      "id": "node/9210235492"
    },
    {
      "type": "Feature",
      "properties": {
        "@id": "node/9210235493",
        "bus": "yes",
        "name": "Yurubí",
        "network": "Metrobus Caracas",
        "network:wikidata": "Q5037565",
        "network:wikipedia": "es:Metrobús (Caracas)",
        "operator": "C.A. Metro de Caracas",
        "operator:wikidata": "Q21001826",
        "public_transport": "stop_position",
        "source": "Maxar (2021); C.A. Metro de Caracas (2004); local knowledge",
        "@relations": [
          {
            "role": "stop",
            "rel": 6051875,
            "reltags": {
              "colour": "#c95b00",
              "description": "Conecta con el Metro Propatria",
              "fee": "yes",
              "name": "Metrobus 501: Casalta",
              "network": "Metrobus Caracas",
              "network:wikidata": "Q5037565",
              "network:wikipedia": "es:Metrobús (Caracas)",
              "operator": "C.A. Metro de Caracas",
              "operator:wikidata": "Q21001826",
              "passenger": "local",
              "public_transport:version": "2",
              "ref": "501",
              "roundtrip": "yes",
              "route": "bus",
              "source": "C.A. Metro de Caracas (2013)",
              "type": "route",
              "wheelchair": "limited",
              "wikidata": "Q109318967"
            }
          }
        ]
      },
      "geometry": {
        "type": "Point",
        "coordinates": [
          -66.9588894,
          10.4985288
        ]
      },
      "id": "node/9210235493"
    },
    {
      "type": "Feature",
      "properties": {
        "@id": "node/9210235494",
        "bus": "yes",
        "name": "Libertador",
        "network": "Metrobus Caracas",
        "network:wikidata": "Q5037565",
        "network:wikipedia": "es:Metrobús (Caracas)",
        "operator": "C.A. Metro de Caracas",
        "operator:wikidata": "Q21001826",
        "public_transport": "stop_position",
        "source": "Maxar (2021); C.A. Metro de Caracas (2004); local knowledge",
        "@relations": [
          {
            "role": "stop",
            "rel": 6051875,
            "reltags": {
              "colour": "#c95b00",
              "description": "Conecta con el Metro Propatria",
              "fee": "yes",
              "name": "Metrobus 501: Casalta",
              "network": "Metrobus Caracas",
              "network:wikidata": "Q5037565",
              "network:wikipedia": "es:Metrobús (Caracas)",
              "operator": "C.A. Metro de Caracas",
              "operator:wikidata": "Q21001826",
              "passenger": "local",
              "public_transport:version": "2",
              "ref": "501",
              "roundtrip": "yes",
              "route": "bus",
              "source": "C.A. Metro de Caracas (2013)",
              "type": "route",
              "wheelchair": "limited",
              "wikidata": "Q109318967"
            }
          }
        ]
      },
      "geometry": {
        "type": "Point",
        "coordinates": [
          -66.9602602,
          10.5010702
        ]
      },
      "id": "node/9210235494"
    },
    {
      "type": "Feature",
      "properties": {
        "@id": "node/9210235495",
        "bus": "yes",
        "name": "Calle 10",
        "network": "Metrobus Caracas",
        "network:wikidata": "Q5037565",
        "network:wikipedia": "es:Metrobús (Caracas)",
        "operator": "C.A. Metro de Caracas",
        "operator:wikidata": "Q21001826",
        "public_transport": "stop_position",
        "source": "Maxar (2021); C.A. Metro de Caracas (2004); local knowledge",
        "@relations": [
          {
            "role": "stop",
            "rel": 6051875,
            "reltags": {
              "colour": "#c95b00",
              "description": "Conecta con el Metro Propatria",
              "fee": "yes",
              "name": "Metrobus 501: Casalta",
              "network": "Metrobus Caracas",
              "network:wikidata": "Q5037565",
              "network:wikipedia": "es:Metrobús (Caracas)",
              "operator": "C.A. Metro de Caracas",
              "operator:wikidata": "Q21001826",
              "passenger": "local",
              "public_transport:version": "2",
              "ref": "501",
              "roundtrip": "yes",
              "route": "bus",
              "source": "C.A. Metro de Caracas (2013)",
              "type": "route",
              "wheelchair": "limited",
              "wikidata": "Q109318967"
            }
          }
        ]
      },
      "geometry": {
        "type": "Point",
        "coordinates": [
          -66.9600158,
          10.5027187
        ]
      },
      "id": "node/9210235495"
    },
    {
      "type": "Feature",
      "properties": {
        "@id": "node/9210235496",
        "bus": "yes",
        "name": "Casa del Obrero",
        "network": "Metrobus Caracas",
        "network:wikidata": "Q5037565",
        "network:wikipedia": "es:Metrobús (Caracas)",
        "operator": "C.A. Metro de Caracas",
        "operator:wikidata": "Q21001826",
        "public_transport": "stop_position",
        "source": "Maxar (2021); C.A. Metro de Caracas (2004); local knowledge",
        "@relations": [
          {
            "role": "stop",
            "rel": 6051875,
            "reltags": {
              "colour": "#c95b00",
              "description": "Conecta con el Metro Propatria",
              "fee": "yes",
              "name": "Metrobus 501: Casalta",
              "network": "Metrobus Caracas",
              "network:wikidata": "Q5037565",
              "network:wikipedia": "es:Metrobús (Caracas)",
              "operator": "C.A. Metro de Caracas",
              "operator:wikidata": "Q21001826",
              "passenger": "local",
              "public_transport:version": "2",
              "ref": "501",
              "roundtrip": "yes",
              "route": "bus",
              "source": "C.A. Metro de Caracas (2013)",
              "type": "route",
              "wheelchair": "limited",
              "wikidata": "Q109318967"
            }
          }
        ]
      },
      "geometry": {
        "type": "Point",
        "coordinates": [
          -66.959542,
          10.5047535
        ]
      },
      "id": "node/9210235496"
    },
    {
      "type": "Feature",
      "properties": {
        "@id": "node/9210235497",
        "bus": "yes",
        "name": "Mariano Picón",
        "network": "Metrobus Caracas",
        "network:wikidata": "Q5037565",
        "network:wikipedia": "es:Metrobús (Caracas)",
        "operator": "C.A. Metro de Caracas",
        "operator:wikidata": "Q21001826",
        "public_transport": "stop_position",
        "source": "Maxar (2021); C.A. Metro de Caracas (2004); local knowledge",
        "@relations": [
          {
            "role": "stop",
            "rel": 6051875,
            "reltags": {
              "colour": "#c95b00",
              "description": "Conecta con el Metro Propatria",
              "fee": "yes",
              "name": "Metrobus 501: Casalta",
              "network": "Metrobus Caracas",
              "network:wikidata": "Q5037565",
              "network:wikipedia": "es:Metrobús (Caracas)",
              "operator": "C.A. Metro de Caracas",
              "operator:wikidata": "Q21001826",
              "passenger": "local",
              "public_transport:version": "2",
              "ref": "501",
              "roundtrip": "yes",
              "route": "bus",
              "source": "C.A. Metro de Caracas (2013)",
              "type": "route",
              "wheelchair": "limited",
              "wikidata": "Q109318967"
            }
          }
        ]
      },
      "geometry": {
        "type": "Point",
        "coordinates": [
          -66.9584658,
          10.5052024
        ]
      },
      "id": "node/9210235497"
    },
    {
      "type": "Feature",
      "properties": {
        "@id": "node/9210235498",
        "bus": "yes",
        "name": "Metro Propatria",
        "network": "Metrobus Caracas",
        "network:wikidata": "Q5037565",
        "network:wikipedia": "es:Metrobús (Caracas)",
        "operator": "C.A. Metro de Caracas",
        "operator:wikidata": "Q21001826",
        "public_transport": "stop_position",
        "source": "Maxar (2021); C.A. Metro de Caracas (2004); local knowledge",
        "@relations": [
          {
            "role": "stop",
            "rel": 6051875,
            "reltags": {
              "colour": "#c95b00",
              "description": "Conecta con el Metro Propatria",
              "fee": "yes",
              "name": "Metrobus 501: Casalta",
              "network": "Metrobus Caracas",
              "network:wikidata": "Q5037565",
              "network:wikipedia": "es:Metrobús (Caracas)",
              "operator": "C.A. Metro de Caracas",
              "operator:wikidata": "Q21001826",
              "passenger": "local",
              "public_transport:version": "2",
              "ref": "501",
              "roundtrip": "yes",
              "route": "bus",
              "source": "C.A. Metro de Caracas (2013)",
              "type": "route",
              "wheelchair": "limited",
              "wikidata": "Q109318967"
            }
          },
          {
            "role": "stop",
            "rel": 6051875,
            "reltags": {
              "colour": "#c95b00",
              "description": "Conecta con el Metro Propatria",
              "fee": "yes",
              "name": "Metrobus 501: Casalta",
              "network": "Metrobus Caracas",
              "network:wikidata": "Q5037565",
              "network:wikipedia": "es:Metrobús (Caracas)",
              "operator": "C.A. Metro de Caracas",
              "operator:wikidata": "Q21001826",
              "passenger": "local",
              "public_transport:version": "2",
              "ref": "501",
              "roundtrip": "yes",
              "route": "bus",
              "source": "C.A. Metro de Caracas (2013)",
              "type": "route",
              "wheelchair": "limited",
              "wikidata": "Q109318967"
            }
          }
        ]
      },
      "geometry": {
        "type": "Point",
        "coordinates": [
          -66.9560702,
          10.504373
        ]
      },
      "id": "node/9210235498"
    }
  ]
}